TOMORROW-S4             
1 62386U 24247K   26068.53305366  .00012677  00000+0  46927-3 0  9990
2 62386  44.9818 117.9996 0004434 210.4078 149.6548 15.27717249 67702
STARLINK-33978          
1 63832U 25092AE  26068.34448351  .00024580  00000+0  89975-3 0  9993
2 63832  43.0046 174.3492 0004886 149.0679 211.0462 15.27573000 48618
